[{"OBJECT_NAME":"MISRSAT-2","OBJECT_ID":"2023-187B","EPOCH":"2026-03-09T22:47:39.416064","MEAN_MOTION":14.82973082,"ECCENTRICITY":0.00124357,"INCLINATION":97.9302,"RA_OF_ASC_NODE":151.6612,"ARG_OF_PERICENTER":109.0533,"MEAN_ANOMALY":251.2029,"EPHEMERIS_TYPE":0,"CLASSIFICATION_TYPE":"U","NORAD_CAT_ID":58497,"ELEMENT_SET_NO":999,"REV_AT_EPOCH":12233,"BSTAR":0.00025174418,"MEAN_MOTION_DOT":1.993e-5,"MEAN_MOTION_DDOT":0},{"OBJECT_NAME":"GEESAT-3 01","OBJECT_ID":"2024-159A","EPOCH":"2026-03-09T22:55:44.243616","MEAN_MOTION":14.83820553,"ECCENTRICITY":0.00031646,"INCLINATION":49.9988,"RA_OF_ASC_NODE":183.2096,"ARG_OF_PERICENTER":229.1953,"MEAN_ANOMALY":130.8711,"EPHEMERIS_TYPE":0,"CLASSIFICATION_TYPE":"U","NORAD_CAT_ID":61011,"ELEMENT_SET_NO":999,"REV_AT_EPOCH":8194,"BSTAR":0.00046731486,"MEAN_MOTION_DOT":3.69e-5,"MEAN_MOTION_DDOT":0}]
